ASTROCAST-0403          
1 55111U 23001DG  26068.82333059  .00013959  00000+0  51317-3 0  9990
2 55111  97.5604 161.3228 0004770 338.0704  22.0330 15.28004949129376
STARLINK-31613          
1 59431U 24065L   26068.90627033  .00001217  00000+0  53242-4 0  9991
2 59431  53.1602 280.5947 0001374  72.6724 287.4427 15.30188035108961
